[{"OBJECT_NAME":"HIBARI","OBJECT_ID":"2021-102F","EPOCH":"2026-03-09T16:55:51.090816","MEAN_MOTION":15.29554512,"ECCENTRICITY":0.00120742,"INCLINATION":97.3381,"RA_OF_ASC_NODE":115.826,"ARG_OF_PERICENTER":186.5211,"MEAN_ANOMALY":173.5875,"EPHEMERIS_TYPE":0,"CLASSIFICATION_TYPE":"U","NORAD_CAT_ID":49400,"ELEMENT_SET_NO":999,"REV_AT_EPOCH":23897,"BSTAR":0.00042758039,"MEAN_MOTION_DOT":0.00012206,"MEAN_MOTION_DDOT":0},{"OBJECT_NAME":"STARLINK-34332","OBJECT_ID":"2025-117L","EPOCH":"2026-03-09T05:55:59.078784","MEAN_MOTION":15.30195803,"ECCENTRICITY":0.00011987,"INCLINATION":53.1624,"RA_OF_ASC_NODE":41.9617,"ARG_OF_PERICENTER":71.59,"MEAN_ANOMALY":288.5231,"EPHEMERIS_TYPE":0,"CLASSIFICATION_TYPE":"U","NORAD_CAT_ID":64213,"ELEMENT_SET_NO":999,"REV_AT_EPOCH":4448,"BSTAR":0.00062533404,"MEAN_MOTION_DOT":0.00018204,"MEAN_MOTION_DDOT":0}]
